OBJECT_NAME,OBJECT_ID,EPOCH,MEAN_MOTION,ECCENTRICITY,INCLINATION,RA_OF_ASC_NODE,ARG_OF_PERICENTER,MEAN_ANOMALY,EPHEMERIS_TYPE,CLASSIFICATION_TYPE,NORAD_CAT_ID,ELEMENT_SET_NO,REV_AT_EPOCH,BSTAR,MEAN_MOTION_DOT,MEAN_MOTION_DDOT
LAOSAT 1,2015-067A,2026-07-02T06:02:20.590944,1.00268627,.00023952,0.0387,194.5768,221.4919,83.2873,0,U,41034,999,3901,0,-.333E-5,0
TELSTAR 12V,2015-068A,2026-07-02T05:21:21.763584,1.00271635,.00025405,0.0185,24.8994,71.1983,249.5184,0,U,41036,999,3877,0,-.108E-5,0
ELEKTRO-L 2,2015-074A,2026-07-01T22:30:52.736832,1.00271077,.00005169,6.7296,70.3426,273.6365,259.1662,0,U,41105,999,3865,0,-.111E-5,0
COSMOS 2513,2015-075A,2026-07-01T04:08:45.512736,1.00269937,.00033373,0.0693,102.1065,336.0950,343.4555,0,U,41121,999,3868,0,-.127E-5,0
EXPRESS-AMU1,2015-082A,2026-07-02T05:35:57.863904,1.00275644,.0003062,0.0168,333.3717,136.4587,290.5535,0,U,41191,999,3841,0,.166E-5,0
GAOFEN-4,2015-083A,2026-07-01T14:31:54.862176,1.00268667,.00042432,0.3936,83.8387,111.7154,47.7566,0,U,41194,999,3867,0,-.324E-5,0
BELINTERSAT-1,2016-001A,2026-07-02T05:40:19.945344,1.00272858,.00017334,0.0052,51.7342,17.3556,347.7651,0,U,41238,999,3838,0,.117E-5,0
IRNSS-1E,2016-003A,2026-06-29T19:51:21.425184,1.00272765,.00192006,33.2608,59.5670,178.7998,89.1855,0,U,41241,999,3820,0,-.31E-5,0
EUTELSAT 9B,2016-005A,2026-07-02T05:28:13.605600,1.00271657,.00015991,0.0567,69.1111,7.3507,294.8510,0,U,41310,999,3826,0,.72E-6,0
SES-9,2016-013A,2026-07-02T00:48:35.125632,1.00270091,.00025513,0.0186,320.8261,127.8478,311.8495,0,U,41380,999,3758,0,-.334E-5,0
EUTELSAT 65 WEST A,2016-014A,2026-07-02T05:07:00.639840,1.00269849,.00027555,0.0840,302.7435,159.1670,189.8870,0,U,41382,999,3767,0,-.266E-5,0
IRNSS-1F,2016-015A,2026-07-01T22:44:20.549184,1.00274955,.00174327,5.3851,96.4465,184.0452,13.0236,0,U,41384,999,3781,0,.165E-5,0
BEIDOU-2 IGSO-6,2016-021A,2026-06-26T02:38:38.671584,1.00258926,.0057558,60.2385,37.9495,231.0163,137.2672,0,U,41434,999,3757,0,-.145E-5,0
IRNSS-1G,2016-027A,2026-07-01T20:02:05.112960,1.00280117,.00058007,5.2308,97.1365,6.3049,246.4676,0,U,41469,999,3732,0,-.327E-5,0
JCSAT-2B,2016-028A,2026-07-02T03:38:38.931936,1.00270983,.00011899,0.0184,16.7590,84.6742,27.4355,0,U,41471,999,3728,0,-.155E-5,0
THAICOM 8,2016-031A,2026-07-02T04:05:22.998048,1.00272341,.00036791,0.0527,28.1358,40.8123,351.1076,0,U,41552,999,3686,0,-.111E-5,0
INTELSAT 31 (IS-31),2016-035A,2026-07-01T13:23:37.148640,1.00270123,.00006522,0.0162,287.8314,350.1203,107.5034,0,U,41581,999,3682,0,-.14E-5,0
BEIDOU-2 G7,2016-037A,2026-07-02T00:49:12.566208,1.00269814,.00067751,1.7553,69.4328,3.5111,329.9821,0,U,41586,999,703,0,-.344E-5,0
ABS-2A (MONGOLSAT-1),2016-038A,2026-07-02T02:21:36.035136,1.00267444,.00017385,0.0253,21.2771,26.5152,342.5007,0,U,41588,999,3685,0,0,0
EUTELSAT 117 WEST B,2016-038B,2026-07-02T00:22:28.202016,1.00272712,.00003557,0.0107,154.0076,118.1646,256.4974,0,U,41589,999,3681,0,-.1E-7,0
BRISAT,2016-039A,2026-07-01T23:17:54.687840,1.00267556,.00021462,0.0203,0.2066,92.7166,327.0650,0,U,41591,999,3675,0,0,0
ECHOSTAR 18,2016-039B,2026-07-02T05:08:08.031840,1.00268249,.0001692,0.0247,36.9530,66.9987,191.9776,0,U,41592,999,3677,0,0,0
MUOS-5,2016-041A,2026-07-02T04:02:38.683392,1.00272742,.01984085,2.1726,301.9249,260.5794,33.2013,0,U,41622,999,3723,0,-.112E-5,0
TIANTONG-1 1,2016-048A,2026-07-02T02:59:51.588960,1.00268594,.00058614,3.8763,43.5289,53.7943,329.1967,0,U,41725,999,3642,0,-.308E-5,0
JCSAT-16,2016-050A,2026-07-01T13:00:12.058272,1.00271932,.00013352,0.0185,22.4108,92.0435,144.1456,0,U,41729,999,3621,0,-.24E-5,0
USA 270,2016-052A,2026-06-25T15:01:47.554176,0.99500516,.0000668,4.2178,77.0981,157.1810,56.2495,0,U,41744,999,2821,0,-.284E-5,0
USA 271,2016-052B,2026-06-25T18:13:09.824736,0.99833204,.0001955,4.1909,77.1447,290.7679,281.9940,0,U,41745,999,2800,0,-.236E-5,0
INTELSAT 36 (IS-36),2016-053A,2026-07-02T00:20:25.724832,1.00270634,.00020349,0.0111,21.2609,326.7662,5.6376,0,U,41747,999,3610,0,-.14E-6,0
INSAT-3DR,2016-054A,2026-07-02T02:21:28.546848,1.00272016,.00100897,0.1413,85.9398,186.3686,117.1834,0,U,41752,999,3596,0,-.66E-6,0
GSAT-18,2016-060A,2026-07-02T02:21:28.546848,1.00269601,.00058652,0.0191,46.8359,29.5242,313.1304,0,U,41793,999,3567,0,0,0
SKY MUSTER 2 (NBN1B),2016-060B,2026-07-02T06:06:57.648096,1.00269615,.00017475,0.0182,347.6591,113.2837,55.8828,0,U,41794,999,3567,0,-.234E-5,0
HIMAWARI-9,2016-064A,2026-07-02T06:05:50.256096,1.00269252,.00013479,0.0318,266.7718,220.6210,25.1005,0,U,41836,999,3536,0,-.265E-5,0
