LAOSAT 1                
1 41034U 15067A   26183.25162721 -.00000333  00000+0  00000+0 0  9995
2 41034   0.0387 194.5768 0002395 221.4919  83.2873  1.00268627 39015
TELSTAR 12V             
1 41036U 15068A   26183.22316856 -.00000108  00000+0  00000+0 0  9995
2 41036   0.0185  24.8994 0002540  71.1983 249.5184  1.00271635 38779
ELEKTRO-L 2             
1 41105U 15074A   26182.93811038 -.00000111  00000+0  00000+0 0  9992
2 41105   6.7296  70.3426 0000516 273.6365 259.1662  1.00271077 38657
COSMOS 2513             
1 41121U 15075A   26182.17274899 -.00000127  00000+0  00000+0 0  9992
2 41121   0.0693 102.1065 0003337 336.0950 343.4555  1.00269937 38687
EXPRESS-AMU1            
1 41191U 15082A   26183.23330861  .00000166  00000+0  00000+0 0  9999
2 41191   0.0168 333.3717 0003062 136.4587 290.5535  1.00275644 38419
GAOFEN-4                
1 41194U 15083A   26182.60549609 -.00000324  00000+0  00000+0 0  9992
2 41194   0.3936  83.8387 0004243 111.7154  47.7566  1.00268667 38677
BELINTERSAT-1           
1 41238U 16001A   26183.23634196  .00000117  00000+0  00000+0 0  9997
2 41238   0.0052  51.7342 0001733  17.3556 347.7651  1.00272858 38388
IRNSS-1E                
1 41241U 16003A   26180.82733131 -.00000310  00000+0  00000+0 0  9990
2 41241  33.2608  59.5670 0019200 178.7998  89.1855  1.00272765 38208
EUTELSAT 9B             
1 41310U 16005A   26183.22793525  .00000072  00000+0  00000+0 0  9993
2 41310   0.0567  69.1111 0001599   7.3507 294.8510  1.00271657 38261
SES-9                   
1 41380U 16013A   26183.03373988 -.00000334  00000+0  00000+0 0  9997
2 41380   0.0186 320.8261 0002551 127.8478 311.8495  1.00270091 37589
EUTELSAT 65 WEST A      
1 41382U 16014A   26183.21320185 -.00000266  00000+0  00000+0 0  9995
2 41382   0.0840 302.7435 0002755 159.1670 189.8870  1.00269849 37677
IRNSS-1F                
1 41384U 16015A   26182.94746006  .00000165  00000+0  00000+0 0  9998
2 41384   5.3851  96.4465 0017432 184.0452  13.0236  1.00274955 37816
BEIDOU-2 IGSO-6         
1 41434U 16021A   26177.11016981 -.00000145  00000+0  00000+0 0  9995
2 41434  60.2385  37.9495 0057558 231.0163 137.2672  1.00258926 37578
IRNSS-1G                
1 41469U 16027A   26182.83478140 -.00000327  00000+0  00000+0 0  9995
2 41469   5.2308  97.1365 0005800   6.3049 246.4676  1.00280117 37320
JCSAT-2B                
1 41471U 16028A   26183.15183949 -.00000155  00000+0  00000+0 0  9994
2 41471   0.0184  16.7590 0001189  84.6742  27.4355  1.00270983 37286
THAICOM 8               
1 41552U 16031A   26183.17040507 -.00000111  00000+0  00000+0 0  9994
2 41552   0.0527  28.1358 0003679  40.8123 351.1076  1.00272341 36869
INTELSAT 31 (IS-31)     
1 41581U 16035A   26182.55806885 -.00000140  00000+0  00000+0 0  9992
2 41581   0.0162 287.8314 0000652 350.1203 107.5034  1.00270123 36825
BEIDOU-2 G7             
1 41586U 16037A   26183.03417322 -.00000344  00000+0  00000+0 0  9993
2 41586   1.7553  69.4328 0006775   3.5111 329.9821  1.00269814  7030
ABS-2A (MONGOLSAT-1)    
1 41588U 16038A   26183.09833374  .00000000  00000+0  00000+0 0  9999
2 41588   0.0253  21.2771 0001738  26.5152 342.5007  1.00267444 36859
EUTELSAT 117 WEST B     
1 41589U 16038B   26183.01560419 -.00000001  00000+0  00000+0 0  9991
2 41589   0.0107 154.0076 0000355 118.1646 256.4974  1.00272712 36817
BRISAT                  
1 41591U 16039A   26182.97077185  .00000000  00000+0  00000+0 0  9990
2 41591   0.0203   0.2066 0002146  92.7166 327.0650  1.00267556 36751
ECHOSTAR 18             
1 41592U 16039B   26183.21398185  .00000000  00000+0  00000+0 0  9995
2 41592   0.0247  36.9530 0001692  66.9987 191.9776  1.00268249 36770
MUOS-5                  
1 41622U 16041A   26183.16850328 -.00000112  00000+0  00000+0 0  9993
2 41622   2.1726 301.9249 0198408 260.5794  33.2013  1.00272742 37238
TIANTONG-1 1            
1 41725U 16048A   26183.12490265 -.00000308  00000+0  00000+0 0  9997
2 41725   3.8763  43.5289 0005861  53.7943 329.1967  1.00268594 36427
JCSAT-16                
1 41729U 16050A   26182.54180623 -.00000240  00000+0  00000+0 0  9998
2 41729   0.0185  22.4108 0001335  92.0435 144.1456  1.00271932 36213
USA 270                 
1 41744U 16052A   26176.62624484 -.00000284  00000+0  00000+0 0  9995
2 41744   4.2178  77.0981 0000668 157.1810  56.2495  0.99500516 28218
USA 271                 
1 41745U 16052B   26176.75914149 -.00000236  00000+0  00000+0 0  9997
2 41745   4.1909  77.1447 0001955 290.7679 281.9940  0.99833204 28007
INTELSAT 36 (IS-36)     
1 41747U 16053A   26183.01418663 -.00000014  00000+0  00000+0 0  9991
2 41747   0.0111  21.2609 0002034 326.7662   5.6376  1.00270634 36109
INSAT-3DR               
1 41752U 16054A   26183.09824707 -.00000066  00000+0  00000+0 0  9993
2 41752   0.1413  85.9398 0010089 186.3686 117.1834  1.00272016 35965
GSAT-18                 
1 41793U 16060A   26183.09824707  .00000000  00000+0  00000+0 0  9992
2 41793   0.0191  46.8359 0005865  29.5242 313.1304  1.00269601 35671
SKY MUSTER 2 (NBN1B)    
1 41794U 16060B   26183.25483389 -.00000234  00000+0  00000+0 0  9998
2 41794   0.0182 347.6591 0001747 113.2837  55.8828  1.00269615 35674
HIMAWARI-9              
1 41836U 16064A   26183.25405389 -.00000265  00000+0  00000+0 0  9997
2 41836   0.0318 266.7718 0001347 220.6210  25.1005  1.00269252 35368
